ONEWEB-0720             
1 55835U 23029AR  26196.78227464  .00000092  00000+0  19807-3 0  9994
2 55835  87.9183 299.2826 0002161 107.7282 252.4087 13.19726185162616
ONEWEB-0537             
1 56046U 23043A   26197.14944586  .00000047  00000+0  90023-4 0  9997
2 56046  87.9079 223.0184 0002155  88.3417 271.7961 13.16593895162773
ONEWEB-0538             
1 56047U 23043B   26197.06711282  .00000118  00000+0  27629-3 0  9994
2 56047  87.9079 223.0375 0002321  94.0215 266.1181 13.16593795162772
ONEWEB-0546             
1 56048U 23043C   26197.13044316  .00000118  00000+0  27393-3 0  9998
2 56048  87.9081 223.0248 0002265  79.7240 280.4146 13.16594162162779
ONEWEB-0547             
1 56049U 23043D   26197.08844659  .00000054  00000+0  10012-3 0  9990
2 56049  87.9239 238.2229 0002251 100.8039 259.3348 13.21827259162040
ONEWEB-0548             
1 56050U 23043E   26197.07897617  .00000129  00000+0  30490-3 0  9998
2 56050  87.9078 223.0307 0001601  91.7007 268.4307 13.16595541162768
ONEWEB-0549             
1 56051U 23043F   26197.15826078  .00000037  00000+0  58834-4 0  9992
2 56051  87.9231 238.2143 0002482  96.9645 263.1771 13.21827067162055
ONEWEB-0550             
1 56052U 23043G   26197.06911793  .00000101  00000+0  21366-3 0  9993
2 56052  87.9234 238.2301 0001890  98.4649 261.6699 13.21827035162044
ONEWEB-0551             
1 56053U 23043H   26197.13308215  .00000156  00000+0  38070-3 0  9991
2 56053  87.8979 253.4591 0002426 102.3502 257.7900 13.15547991160209
ONEWEB-0552             
1 56054U 23043J   26197.13975545  .00000055  00000+0  10270-3 0  9998
2 56054  87.9230 238.2208 0002093 101.4915 258.6454 13.21826013162056
ONEWEB-0553             
1 56055U 23043K   26197.13677708  .00000000  00000+0 -33230-4 0  9992
2 56055  87.9078 223.0236 0002030  82.4418 277.6943 13.16592941162785
ONEWEB-0554             
1 56056U 23043L   26197.12411245  .00000037  00000+0  62976-4 0  9992
2 56056  87.9074 223.0350 0001529  94.5444 265.5861 13.16593644162768
ONEWEB-0555             
1 56057U 23043M   26197.08610676  .00000021  00000+0  20021-4 0  9995
2 56057  87.9080 223.0312 0002172  77.7360 282.4014 13.16594173162765
ONEWEB-0557             
1 56058U 23043N   26197.10035688 -.00000038  00000+0 -13195-3 0  9996
2 56058  87.9079 223.0383 0001254  57.1791 302.9460 13.16593469162762
ONEWEB-0558             
1 56059U 23043P   26197.13303352  .00000103  00000+0  21761-3 0  9995
2 56059  87.9235 238.2178 0002425  94.8436 265.2975 13.21826196162069
ONEWEB-0559             
1 56060U 23043Q   26197.12125896  .00000103  00000+0  21729-3 0  9995
2 56060  87.9236 238.2156 0002235 100.1903 259.9484 13.21824560162076
ONEWEB-0566             
1 56061U 23043R   26197.11453169  .00000027  00000+0  33522-4 0  9992
2 56061  87.9237 238.2148 0002339 102.1903 257.9493 13.21824181162051
ONEWEB-0568             
1 56062U 23043S   26197.11777194  .00000006  00000+0 -18797-4 0  9995
2 56062  87.9077 223.0243 0002114  85.6264 274.5109 13.16595513162785
ONEWEB-0574             
1 56063U 23043T   26197.10781520  .00000028  00000+0  35495-4 0  9990
2 56063  87.9240 238.2209 0001905  94.6400 265.4951 13.21825911162099
ONEWEB-0575             
1 56064U 23043U   26197.11143356 -.00000012  00000+0 -63763-4 0  9995
2 56064  87.9077 223.0219 0001760  84.3092 275.8240 13.16595721162771
ONEWEB-0576             
1 56065U 23043V   26197.09242848 -.00000042  00000+0 -14244-3 0  9991
2 56065  87.9083 223.0343 0001885  88.6317 271.5030 13.16595774162769
ONEWEB-0577             
1 56066U 23043W   26197.09877027 -.00000055  00000+0 -17754-3 0  9998
2 56066  87.9081 223.0306 0001333  83.3470 276.7813 13.16595525162790
ONEWEB-0578             
1 56067U 23043X   26197.09435620  .00000099  00000+0  20811-3 0  9992
2 56067  87.9239 238.2200 0002117  88.1915 271.9462 13.21826559162051
ONEWEB-0579             
1 56068U 23043Y   26197.08592057 -.00000156  00000+0 -40867-3 0  9999
2 56068  87.9242 238.2203 0002099 103.0451 257.0917 13.21826146162063
ONEWEB-0581             
1 56069U 23043Z   26197.10510146 -.00000008  00000+0 -53790-4 0  9998
2 56069  87.9071 223.0399 0001515  90.6714 269.4591 13.16595399162766
ONEWEB-0609             
1 56070U 23043AA  26197.15922558  .00000145  00000+0  35188-3 0  9999
2 56070  87.8985 253.4383 0002147  97.0333 263.1041 13.15547633160240
ONEWEB-0613             
1 56071U 23043AB  26197.15685053  .00000249  00000+0  62848-3 0  9994
2 56071  87.8983 253.4514 0002215 103.9970 256.1407 13.15548233160240
ONEWEB-0630             
1 56072U 23043AC  26197.15209144  .00000181  00000+0  44538-3 0  9999
2 56072  87.8991 253.4256 0002159 104.1396 255.9974 13.15549339160238
ONEWEB-0632             
1 56073U 23043AD  26197.14734860  .00000213  00000+0  53147-3 0  9999
2 56073  87.8986 253.4430 0001883  99.4416 260.6928 13.15547989160230
ONEWEB-0633             
1 56074U 23043AE  26197.14100890  .00000321  00000+0  81818-3 0  9996
2 56074  87.8991 253.4227 0002476 105.5329 254.6074 13.15547932160213
ONEWEB-0634             
1 56075U 23043AF  26197.12674856  .00000059  00000+0  12272-3 0  9999
2 56075  87.8981 253.4634 0002283  91.1729 268.9662 13.15548168160207
