OBJECT_NAME,OBJECT_ID,EPOCH,MEAN_MOTION,ECCENTRICITY,INCLINATION,RA_OF_ASC_NODE,ARG_OF_PERICENTER,MEAN_ANOMALY,EPHEMERIS_TYPE,CLASSIFICATION_TYPE,NORAD_CAT_ID,ELEMENT_SET_NO,REV_AT_EPOCH,BSTAR,MEAN_MOTION_DOT,MEAN_MOTION_DDOT
ONEWEB-0720,2023-029AR,2026-07-15T18:46:28.528896,13.19726185,.00021611,87.9183,299.2826,107.7282,252.4087,0,U,55835,999,16261,.19806714E-3,.92E-6,0
ONEWEB-0537,2023-043A,2026-07-16T03:35:12.122304,13.16593895,.0002155,87.9079,223.0184,88.3417,271.7961,0,U,56046,999,16277,.90023E-4,.47E-6,0
ONEWEB-0538,2023-043B,2026-07-16T01:36:38.547648,13.16593795,.0002321,87.9079,223.0375,94.0215,266.1181,0,U,56047,999,16277,.27629E-3,.118E-5,0
ONEWEB-0546,2023-043C,2026-07-16T03:07:50.289024,13.16594162,.0002265,87.9081,223.0248,79.7240,280.4146,0,U,56048,999,16277,.27393E-3,.118E-5,0
ONEWEB-0547,2023-043D,2026-07-16T02:07:21.785376,13.21827259,.0002251,87.9239,238.2229,100.8039,259.3348,0,U,56049,999,16204,.10012E-3,.54E-6,0
ONEWEB-0548,2023-043E,2026-07-16T01:53:43.541088,13.16595541,.0001601,87.9078,223.0307,91.7007,268.4307,0,U,56050,999,16276,.3049E-3,.129E-5,0
ONEWEB-0549,2023-043F,2026-07-16T03:47:53.731392,13.21827067,.0002482,87.9231,238.2143,96.9645,263.1771,0,U,56051,999,16205,.58834E-4,.37E-6,0
ONEWEB-0550,2023-043G,2026-07-16T01:39:31.789152,13.21827035,.000189,87.9234,238.2301,98.4649,261.6699,0,U,56052,999,16204,.21366E-3,.101E-5,0
ONEWEB-0551,2023-043H,2026-07-16T03:11:38.297760,13.15547991,.0002426,87.8979,253.4591,102.3502,257.7900,0,U,56053,999,16020,.3807E-3,.156E-5,0
ONEWEB-0552,2023-043J,2026-07-16T03:21:14.870880,13.21826013,.0002093,87.9230,238.2208,101.4915,258.6454,0,U,56054,999,16205,.1027E-3,.55E-6,0
ONEWEB-0553,2023-043K,2026-07-16T03:16:57.539712,13.16592941,.000203,87.9078,223.0236,82.4418,277.6943,0,U,56055,999,16278,-.3323E-4,0,0
ONEWEB-0554,2023-043L,2026-07-16T02:58:43.315680,13.16593644,.0001529,87.9074,223.0350,94.5444,265.5861,0,U,56056,999,16276,.62976E-4,.37E-6,0
ONEWEB-0555,2023-043M,2026-07-16T02:03:59.624064,13.16594173,.0002172,87.9080,223.0312,77.7360,282.4014,0,U,56057,999,16276,.20021E-4,.21E-6,0
ONEWEB-0557,2023-043N,2026-07-16T02:24:30.834432,13.16593469,.0001254,87.9079,223.0383,57.1791,302.9460,0,U,56058,999,16276,-.13195E-3,-.38E-6,0
ONEWEB-0558,2023-043P,2026-07-16T03:11:34.096128,13.21826196,.0002425,87.9235,238.2178,94.8436,265.2975,0,U,56059,999,16206,.21761E-3,.103E-5,0
ONEWEB-0559,2023-043Q,2026-07-16T02:54:36.774144,13.21824560,.0002235,87.9236,238.2156,100.1903,259.9484,0,U,56060,999,16207,.21729E-3,.103E-5,0
ONEWEB-0566,2023-043R,2026-07-16T02:44:55.538016,13.21824181,.0002339,87.9237,238.2148,102.1903,257.9493,0,U,56061,999,16205,.33522E-4,.27E-6,0
ONEWEB-0568,2023-043S,2026-07-16T02:49:35.495616,13.16595513,.0002114,87.9077,223.0243,85.6264,274.5109,0,U,56062,999,16278,-.18797E-4,.6E-7,0
ONEWEB-0574,2023-043T,2026-07-16T02:35:15.233280,13.21825911,.0001905,87.9240,238.2209,94.6400,265.4951,0,U,56063,999,16209,.35495E-4,.28E-6,0
ONEWEB-0575,2023-043U,2026-07-16T02:40:27.859584,13.16595721,.000176,87.9077,223.0219,84.3092,275.8240,0,U,56064,999,16277,-.63763E-4,-.12E-6,0
ONEWEB-0576,2023-043V,2026-07-16T02:13:05.820672,13.16595774,.0001885,87.9083,223.0343,88.6317,271.5030,0,U,56065,999,16276,-.14244E-3,-.42E-6,0
ONEWEB-0577,2023-043W,2026-07-16T02:22:13.751328,13.16595525,.0001333,87.9081,223.0306,83.3470,276.7813,0,U,56066,999,16279,-.17754E-3,-.55E-6,0
ONEWEB-0578,2023-043X,2026-07-16T02:15:52.375680,13.21826559,.0002117,87.9239,238.2200,88.1915,271.9462,0,U,56067,999,16205,.20811E-3,.99E-6,0
ONEWEB-0579,2023-043Y,2026-07-16T02:03:43.537248,13.21826146,.0002099,87.9242,238.2203,103.0451,257.0917,0,U,56068,999,16206,-.40867E-3,-.156E-5,0
ONEWEB-0581,2023-043Z,2026-07-16T02:31:20.766144,13.16595399,.0001515,87.9071,223.0399,90.6714,269.4591,0,U,56069,999,16276,-.5379E-4,-.8E-7,0
ONEWEB-0609,2023-043AA,2026-07-16T03:49:17.090112,13.15547633,.0002147,87.8985,253.4383,97.0333,263.1041,0,U,56070,999,16024,.35188E-3,.145E-5,0
ONEWEB-0613,2023-043AB,2026-07-16T03:45:51.885792,13.15548233,.0002215,87.8983,253.4514,103.9970,256.1407,0,U,56071,999,16024,.62848E-3,.249E-5,0
ONEWEB-0630,2023-043AC,2026-07-16T03:39:00.700416,13.15549339,.0002159,87.8991,253.4256,104.1396,255.9974,0,U,56072,999,16023,.44538E-3,.181E-5,0
ONEWEB-0632,2023-043AD,2026-07-16T03:32:10.919040,13.15547989,.0001883,87.8986,253.4430,99.4416,260.6928,0,U,56073,999,16023,.53147E-3,.213E-5,0
ONEWEB-0633,2023-043AE,2026-07-16T03:23:03.168960,13.15547932,.0002476,87.8991,253.4227,105.5329,254.6074,0,U,56074,999,16021,.81818E-3,.321E-5,0
ONEWEB-0634,2023-043AF,2026-07-16T03:02:31.075584,13.15548168,.0002283,87.8981,253.4634,91.1729,268.9662,0,U,56075,999,16020,.12272E-3,.59E-6,0
